[{"OBJECT_NAME":"ONEWEB-0023","OBJECT_ID":"2020-008F","EPOCH":"2026-03-09T21:12:18.032256","MEAN_MOTION":13.1037162,"ECCENTRICITY":0.0001667,"INCLINATION":87.8766,"RA_OF_ASC_NODE":56.0361,"ARG_OF_PERICENTER":85.2329,"MEAN_ANOMALY":274.8989,"EPHEMERIS_TYPE":0,"CLASSIFICATION_TYPE":"U","NORAD_CAT_ID":45136,"ELEMENT_SET_NO":999,"REV_AT_EPOCH":29507,"BSTAR":0.0012984382,"MEAN_MOTION_DOT":4.66e-6,"MEAN_MOTION_DDOT":0},{"OBJECT_NAME":"CZ-4C DEB","OBJECT_ID":"2015-040D","EPOCH":"2026-03-08T09:58:09.156864","MEAN_MOTION":13.22572388,"ECCENTRICITY":0.01417404,"INCLINATION":100.1866,"RA_OF_ASC_NODE":142.2067,"ARG_OF_PERICENTER":40.5742,"MEAN_ANOMALY":320.5838,"EPHEMERIS_TYPE":0,"CLASSIFICATION_TYPE":"U","NORAD_CAT_ID":43425,"ELEMENT_SET_NO":999,"REV_AT_EPOCH":50722,"BSTAR":0.00033161309,"MEAN_MOTION_DOT":1.03e-6,"MEAN_MOTION_DDOT":0}]
